{"spkid": "50943368", "covariance": {"epoch": "2460703.5", "labels": ["e", "q", "tp", "node", "peri", "i"], "data": [["2.67784951761062E-11", "-3.027443845133484E-11", "-3.333113977624143E-10", "-1.987516403173054E-11", "-3.588673963629709E-9", "4.903606120214244E-10"], ["-3.027443845133484E-11", "3.422679311817579E-11", "3.765161737045469E-10", "2.249724755681639E-11", "4.056863019481164E-9", "-5.531636221601727E-10"], ["-3.333113977624143E-10", "3.765161737045469E-10", "1.13545938627008E-8", "-3.605051124422518E-10", "5.195876356429358E-8", "-3.410853434658325E-8"], ["-1.987516403173054E-11", "2.249724755681639E-11", "-3.605051124422518E-10", "9.803533592783733E-11", "2.021407203643072E-9", "2.372017727280998E-9"], ["-3.588673963629709E-9", "4.056863019481164E-9", "5.195876356429358E-8", "2.021407203643072E-9", "4.883318620759414E-7", "-9.435514165830885E-8"], ["4.903606120214244E-10", "-5.531636221601727E-10", "-3.410853434658325E-8", "2.372017727280998E-9", "-9.435514165830885E-8", "1.258836094797059E-7"]], "elements": [{"sigma": 5.17479421582213e-06, "name": "e", "units": null, "title": "eccentricity", "value": ".2510389363468501", "label": "e"}, {"label": "q", "value": ".8465875761254156", "title": "perihelion distance", "units": "au", "name": "q", "sigma": 5.85036692167045e-06}, {"label": "tp", "name": "tp", "sigma": 0.000106557936648101, "value": "2460523.123780696290", "title": "time of perihelion passage", "units": "TDB"}, {"sigma": 9.90127950963093e-06, "name": "om", "units": "deg", "title": "longitude of the ascending node", "value": "91.17967748459874", "label": "node"}, {"label": "peri", "name": "w", "sigma": 0.00069880745708381, "title": "argument of perihelion", "value": "272.693875177195", "units": "deg"}, {"label": "i", "name": "i", "sigma": 0.000354800802535318, "title": "inclination", "value": "31.00419574020935", "units": "deg"}]}, "elements": [{"units": null, "value": ".2509526812237857", "title": "eccentricity", "name": "e", "sigma": "5.1754E-6", "label": "e"}, {"title": "semi-major axis", "value": "1.13053186919263", "units": "au", "sigma": "4.8377E-9", "name": "a", "label": "a"}, {"name": "q", "sigma": "5.8543E-6", "value": ".8468218654098013", "title": "perihelion distance", "units": "au", "label": "q"}, {"label": "i", "sigma": ".00035473", "name": "i", "units": "deg", "title": "inclination; angle with respect to x-y ecliptic plane", "value": "31.0060783924194"}, {"value": "91.17326373048071", "title": "longitude of the ascending node", "units": "deg", "sigma": "9.977E-6", "name": "om", "label": "node"}, {"label": "peri", "title": "argument of perihelion", "value": "272.7260365069754", "units": "deg", "name": "w", "sigma": ".00069948"}, {"units": "deg", "title": "mean anomaly", "value": "195.4823573910523", "sigma": "8.7108E-5", "name": "ma", "label": "M"}, {"title": "time of perihelion passage", "value": "2461401.146975680006", "units": "TDB", "sigma": ".00010686", "name": "tp", "label": "tp"}, {"label": "period", "units": "d", "value": "439.0587544248794", "title": "sidereal orbital period", "name": "per", "sigma": "2.8182E-6"}, {"value": ".819935820370014", "title": "mean motion", "units": "deg/d", "name": "n", "sigma": "5.2629E-9", "label": "n"}, {"label": "Q", "name": "ad", "sigma": "6.0517E-9", "units": "au", "title": "aphelion distance", "value": "1.414241872975458"}], "epoch": "2461200.5"}